[{"OBJECT_NAME":"KOREASAT 6A","OBJECT_ID":"2024-206A","EPOCH":"2026-03-04T00:53:32.968032","MEAN_MOTION":1.00270617,"ECCENTRICITY":0.0001004,"INCLINATION":0.0299,"RA_OF_ASC_NODE":228.5033,"ARG_OF_PERICENTER":101.7584,"MEAN_ANOMALY":320.9158,"EPHEMERIS_TYPE":0,"CLASSIFICATION_TYPE":"U","NORAD_CAT_ID":61910,"ELEMENT_SET_NO":999,"REV_AT_EPOCH":478,"BSTAR":0,"MEAN_MOTION_DOT":-3.75e-6,"MEAN_MOTION_DDOT":0},{"OBJECT_NAME":"INTELSAT 33E DEB","OBJECT_ID":"2016-053L","EPOCH":"2026-03-03T10:48:51.246432","MEAN_MOTION":1.00502045,"ECCENTRICITY":0.0025598,"INCLINATION":1.3129,"RA_OF_ASC_NODE":87.1597,"ARG_OF_PERICENTER":209.6136,"MEAN_ANOMALY":151.2315,"EPHEMERIS_TYPE":0,"CLASSIFICATION_TYPE":"U","NORAD_CAT_ID":61994,"ELEMENT_SET_NO":999,"REV_AT_EPOCH":503,"BSTAR":0,"MEAN_MOTION_DOT":-3.51e-6,"MEAN_MOTION_DDOT":0},{"OBJECT_NAME":"INTELSAT 33E DEB","OBJECT_ID":"2016-053Q","EPOCH":"2026-03-02T21:48:31.368096","MEAN_MOTION":1.00405023,"ECCENTRICITY":0.0030618,"INCLINATION":1.2832,"RA_OF_ASC_NODE":84.4862,"ARG_OF_PERICENTER":268.9723,"MEAN_ANOMALY":91.6748,"EPHEMERIS_TYPE":0,"CLASSIFICATION_TYPE":"U","NORAD_CAT_ID":61998,"ELEMENT_SET_NO":999,"REV_AT_EPOCH":503,"BSTAR":0,"MEAN_MOTION_DOT":-2.74e-6,"MEAN_MOTION_DDOT":0},{"OBJECT_NAME":"INTELSAT 33E DEB","OBJECT_ID":"2016-053V","EPOCH":"2026-03-03T20:14:58.576992","MEAN_MOTION":1.0040908,"ECCENTRICITY":0.0025363,"INCLINATION":1.3542,"RA_OF_ASC_NODE":90.1162,"ARG_OF_PERICENTER":246.6849,"MEAN_ANOMALY":114.0003,"EPHEMERIS_TYPE":0,"CLASSIFICATION_TYPE":"U","NORAD_CAT_ID":62003,"ELEMENT_SET_NO":999,"REV_AT_EPOCH":502,"BSTAR":0,"MEAN_MOTION_DOT":-1.04e-6,"MEAN_MOTION_DDOT":0},{"OBJECT_NAME":"OPTUS-X (ADS-01)","OBJECT_ID":"2024-212A","EPOCH":"2026-03-03T11:23:49.184448","MEAN_MOTION":1.00269128,"ECCENTRICITY":0.00010612,"INCLINATION":0.0616,"RA_OF_ASC_NODE":275.0999,"ARG_OF_PERICENTER":81.9955,"MEAN_ANOMALY":131.4991,"EPHEMERIS_TYPE":0,"CLASSIFICATION_TYPE":"U","NORAD_CAT_ID":62006,"ELEMENT_SET_NO":999,"REV_AT_EPOCH":470,"BSTAR":0,"MEAN_MOTION_DOT":-1.59e-6,"MEAN_MOTION_DDOT":0},{"OBJECT_NAME":"GSAT-N2 (GSAT-20)","OBJECT_ID":"2024-214A","EPOCH":"2026-03-04T02:22:46.913376","MEAN_MOTION":1.00273067,"ECCENTRICITY":0.0001179,"INCLINATION":0.0857,"RA_OF_ASC_NODE":265.4067,"ARG_OF_PERICENTER":313.9215,"MEAN_ANOMALY":46.2145,"EPHEMERIS_TYPE":0,"CLASSIFICATION_TYPE":"U","NORAD_CAT_ID":62028,"ELEMENT_SET_NO":999,"REV_AT_EPOCH":484,"BSTAR":0,"MEAN_MOTION_DOT":-3.3e-7,"MEAN_MOTION_DDOT":0},{"OBJECT_NAME":"SXM-9","OBJECT_ID":"2024-234A","EPOCH":"2026-03-03T23:03:38.666016","MEAN_MOTION":1.00268595,"ECCENTRICITY":0.0003996,"INCLINATION":0.0134,"RA_OF_ASC_NODE":143.412,"ARG_OF_PERICENTER":165.9927,"MEAN_ANOMALY":113.078,"EPHEMERIS_TYPE":0,"CLASSIFICATION_TYPE":"U","NORAD_CAT_ID":62259,"ELEMENT_SET_NO":999,"REV_AT_EPOCH":451,"BSTAR":0,"MEAN_MOTION_DOT":0,"MEAN_MOTION_DDOT":0},{"OBJECT_NAME":"TJS-12","OBJECT_ID":"2024-246A","EPOCH":"2026-03-03T23:19:43.393728","MEAN_MOTION":1.00275284,"ECCENTRICITY":0.0002382,"INCLINATION":0.9114,"RA_OF_ASC_NODE":291.6531,"ARG_OF_PERICENTER":24.6074,"MEAN_ANOMALY":341.8498,"EPHEMERIS_TYPE":0,"CLASSIFICATION_TYPE":"U","NORAD_CAT_ID":62374,"ELEMENT_SET_NO":999,"REV_AT_EPOCH":451,"BSTAR":0,"MEAN_MOTION_DOT":-2.45e-6,"MEAN_MOTION_DDOT":0},{"OBJECT_NAME":"NUVIEW ALPHA","OBJECT_ID":"2024-252B","EPOCH":"2026-03-04T04:10:38.597376","MEAN_MOTION":1.00273099,"ECCENTRICITY":0.0002659,"INCLINATION":0.0556,"RA_OF_ASC_NODE":23.3551,"ARG_OF_PERICENTER":333.6447,"MEAN_ANOMALY":144.465,"EPHEMERIS_TYPE":0,"CLASSIFICATION_TYPE":"U","NORAD_CAT_ID":62455,"ELEMENT_SET_NO":999,"REV_AT_EPOCH":277,"BSTAR":0,"MEAN_MOTION_DOT":-2.28e-6,"MEAN_MOTION_DDOT":0},{"OBJECT_NAME":"AGILA","OBJECT_ID":"2024-252C","EPOCH":"2026-03-03T21:38:38.084352","MEAN_MOTION":1.00273893,"ECCENTRICITY":0.0001448,"INCLINATION":0.0253,"RA_OF_ASC_NODE":152.1832,"ARG_OF_PERICENTER":193.4855,"MEAN_ANOMALY":292.7717,"EPHEMERIS_TYPE":0,"CLASSIFICATION_TYPE":"U","NORAD_CAT_ID":62456,"ELEMENT_SET_NO":999,"REV_AT_EPOCH":410,"BSTAR":0,"MEAN_MOTION_DOT":-1.95e-6,"MEAN_MOTION_DDOT":0},{"OBJECT_NAME":"NUVIEW BRAVO","OBJECT_ID":"2024-252D","EPOCH":"2026-03-04T04:10:38.597376","MEAN_MOTION":1.00273353,"ECCENTRICITY":4.71e-5,"INCLINATION":0.0652,"RA_OF_ASC_NODE":169.2547,"ARG_OF_PERICENTER":179.9853,"MEAN_ANOMALY":152.1978,"EPHEMERIS_TYPE":0,"CLASSIFICATION_TYPE":"U","NORAD_CAT_ID":62457,"ELEMENT_SET_NO":999,"REV_AT_EPOCH":274,"BSTAR":0,"MEAN_MOTION_DOT":-2.27e-6,"MEAN_MOTION_DDOT":0},{"OBJECT_NAME":"THURAYA-4","OBJECT_ID":"2025-001A","EPOCH":"2026-03-04T02:16:02.558784","MEAN_MOTION":1.00273203,"ECCENTRICITY":1.02e-5,"INCLINATION":0.0207,"RA_OF_ASC_NODE":100.4849,"ARG_OF_PERICENTER":212.0673,"MEAN_ANOMALY":287.5999,"EPHEMERIS_TYPE":0,"CLASSIFICATION_TYPE":"U","NORAD_CAT_ID":62483,"ELEMENT_SET_NO":999,"REV_AT_EPOCH":312,"BSTAR":0,"MEAN_MOTION_DOT":1.27e-6,"MEAN_MOTION_DDOT":0},{"OBJECT_NAME":"TJS-14","OBJECT_ID":"2025-017A","EPOCH":"2026-03-04T03:51:15.929856","MEAN_MOTION":1.00269973,"ECCENTRICITY":0.000234,"INCLINATION":1.0281,"RA_OF_ASC_NODE":290.0172,"ARG_OF_PERICENTER":50.5433,"MEAN_ANOMALY":257.5142,"EPHEMERIS_TYPE":0,"CLASSIFICATION_TYPE":"U","NORAD_CAT_ID":62804,"ELEMENT_SET_NO":999,"REV_AT_EPOCH":421,"BSTAR":0,"MEAN_MOTION_DOT":1.01e-6,"MEAN_MOTION_DDOT":0},{"OBJECT_NAME":"SPAINSAT NG I","OBJECT_ID":"2025-021A","EPOCH":"2026-03-04T01:39:38.681280","MEAN_MOTION":1.0027105,"ECCENTRICITY":7.6e-6,"INCLINATION":0.0254,"RA_OF_ASC_NODE":150.1113,"ARG_OF_PERICENTER":232.0081,"MEAN_ANOMALY":193.5794,"EPHEMERIS_TYPE":0,"CLASSIFICATION_TYPE":"U","NORAD_CAT_ID":62852,"ELEMENT_SET_NO":999,"REV_AT_EPOCH":293,"BSTAR":0,"MEAN_MOTION_DOT":0,"MEAN_MOTION_DDOT":0},{"OBJECT_NAME":"QZS-6 (MICHIBIKI-6)","OBJECT_ID":"2025-023A","EPOCH":"2026-03-04T04:07:38.638272","MEAN_MOTION":1.00270177,"ECCENTRICITY":0.0001873,"INCLINATION":0.0438,"RA_OF_ASC_NODE":309.624,"ARG_OF_PERICENTER":27.3096,"MEAN_ANOMALY":337.3973,"EPHEMERIS_TYPE":0,"CLASSIFICATION_TYPE":"U","NORAD_CAT_ID":62876,"ELEMENT_SET_NO":999,"REV_AT_EPOCH":390,"BSTAR":0,"MEAN_MOTION_DOT":-2.45e-6,"MEAN_MOTION_DDOT":0},{"OBJECT_NAME":"ZHONGXING-10R","OBJECT_ID":"2025-036A","EPOCH":"2026-03-04T00:52:10.598592","MEAN_MOTION":1.00269233,"ECCENTRICITY":0.0001096,"INCLINATION":0.0979,"RA_OF_ASC_NODE":262.3606,"ARG_OF_PERICENTER":296.1081,"MEAN_ANOMALY":86.8472,"EPHEMERIS_TYPE":0,"CLASSIFICATION_TYPE":"U","NORAD_CAT_ID":63075,"ELEMENT_SET_NO":999,"REV_AT_EPOCH":390,"BSTAR":0,"MEAN_MOTION_DOT":-3.65e-6,"MEAN_MOTION_DDOT":0},{"OBJECT_NAME":"TJS-15","OBJECT_ID":"2025-045A","EPOCH":"2026-03-03T13:58:38.052768","MEAN_MOTION":1.00276537,"ECCENTRICITY":0.0006982,"INCLINATION":0.2171,"RA_OF_ASC_NODE":88.0946,"ARG_OF_PERICENTER":264.7815,"MEAN_ANOMALY":112.4161,"EPHEMERIS_TYPE":0,"CLASSIFICATION_TYPE":"U","NORAD_CAT_ID":63157,"ELEMENT_SET_NO":999,"REV_AT_EPOCH":370,"BSTAR":0,"MEAN_MOTION_DOT":-2.79e-6,"MEAN_MOTION_DDOT":0}]
