KOREASAT 6A             
1 61910U 24206A   26063.03718713 -.00000375  00000+0  00000+0 0  9992
2 61910   0.0299 228.5033 0001004 101.7584 320.9158  1.00270617  4784
INTELSAT 33E DEB        
1 61994U 16053L   26062.45059313 -.00000351  00000+0  00000+0 0  9998
2 61994   1.3129  87.1597 0025598 209.6136 151.2315  1.00502045  5033
INTELSAT 33E DEB        
1 61998U 16053Q   26061.90869639 -.00000274  00000+0  00000+0 0  9995
2 61998   1.2832  84.4862 0030618 268.9723  91.6748  1.00405023  5036
INTELSAT 33E DEB        
1 62003U 16053V   26062.84373353 -.00000104  00000+0  00000+0 0  9992
2 62003   1.3542  90.1162 0025363 246.6849 114.0003  1.00409080  5023
OPTUS-X (ADS-01)        
1 62006U 24212A   26062.47487482 -.00000159  00000+0  00000+0 0  9999
2 62006   0.0616 275.0999 0001061  81.9955 131.4991  1.00269128  4703
GSAT-N2 (GSAT-20)       
1 62028U 24214A   26063.09915409 -.00000033  00000+0  00000+0 0  9990
2 62028   0.0857 265.4067 0001179 313.9215  46.2145  1.00273067  4846
SXM-9                   
1 62259U 24234A   26062.96086419  .00000000  00000+0  00000+0 0  9996
2 62259   0.0134 143.4120 0003996 165.9927 113.0780  1.00268595  4511
TJS-12                  
1 62374U 24246A   26062.97203002 -.00000245  00000+0  00000+0 0  9999
2 62374   0.9114 291.6531 0002382  24.6074 341.8498  1.00275284  4510
NUVIEW ALPHA            
1 62455U 24252B   26063.17405784 -.00000228  00000+0  00000+0 0  9991
2 62455   0.0556  23.3551 0002659 333.6447 144.4650  1.00273099  2772
AGILA                   
1 62456U 24252C   26062.90182968 -.00000195  00000+0  00000+0 0  9991
2 62456   0.0253 152.1832 0001448 193.4855 292.7717  1.00273893  4102
NUVIEW BRAVO            
1 62457U 24252D   26063.17405784 -.00000227  00000+0  00000+0 0  9992
2 62457   0.0652 169.2547 0000471 179.9853 152.1978  1.00273353  2747
THURAYA-4               
1 62483U 25001A   26063.09447406  .00000127  00000+0  00000+0 0  9990
2 62483   0.0207 100.4849 0000102 212.0673 287.5999  1.00273203  3127
TJS-14                  
1 62804U 25017A   26063.16060104  .00000101  00000+0  00000+0 0  9990
2 62804   1.0281 290.0172 0002340  50.5433 257.5142  1.00269973  4214
SPAINSAT NG I           
1 62852U 25021A   26063.06919770  .00000000  00000+0  00000+0 0  9997
2 62852   0.0254 150.1113 0000076 232.0081 193.5794  1.00271050  2935
QZS-6 (MICHIBIKI-6)     
1 62876U 25023A   26063.17197498 -.00000245  00000+0  00000+0 0  9994
2 62876   0.0438 309.6240 0001873  27.3096 337.3973  1.00270177  3908
ZHONGXING-10R           
1 63075U 25036A   26063.03623378 -.00000365  00000+0  00000+0 0  9999
2 63075   0.0979 262.3606 0001096 296.1081  86.8472  1.00269233  3909
TJS-15                  
1 63157U 25045A   26062.58238487 -.00000279  00000+0  00000+0 0  9996
2 63157   0.2171  88.0946 0006982 264.7815 112.4161  1.00276537  3705
